TEVEL2-2                
1 63219U 25052K   26068.64848259  .00020339  00000+0  69428-3 0  9991
2 63219  97.3987 324.7700 0004693 105.7930 254.3828 15.30343745 54855
STARLINK-34114          
1 63905U 25095R   26067.38254070  .00038318  00000+0  13938-2 0  9992
2 63905  43.0021 183.9699 0000894 231.7805 128.2966 15.27602250 47574
